ONEWEB-0424             
1 50497U 21132AE  24087.54967273 -.00000096  00000+0 -27721-3 0  9996
2 50497  87.9169 137.0216 0002153 113.9384 246.1974 13.18682946115959
ONEWEB-0426             
1 50498U 21132AF  24087.58760465  .00000002  00000+0 -28814-4 0  9996
2 50498  87.9165 137.0346 0002735  93.3297 266.8148 13.18683949114629
ONEWEB-0427             
1 50499U 21132AG  24087.54809761  .00000056  00000+0  10856-3 0  9990
2 50499  87.9168 137.0187 0002337 100.0744 260.0652 13.18685438114640
ONEWEB-0429             
1 50500U 21132AH  24087.61131470  .00000004  00000+0 -23144-4 0  9995
2 50500  87.9174 137.0073 0002004  97.1218 263.0142 13.18685730114627
ONEWEB-0430             
1 50501U 21132AJ  24087.60026323  .00000045  00000+0  82232-4 0  9992
2 50501  87.9170 137.0170 0001803 111.2177 248.9148 13.18685810114661
ONEWEB-0432             
1 50502U 21132AK  24087.55599840  .00000028  00000+0  38986-4 0  9994
2 50502  87.9169 137.0194 0001933 100.0514 260.0836 13.18684931114618
ONEWEB-0440             
1 50503U 21132AL  24087.54334617  .00000039  00000+0  65856-4 0  9991
2 50503  87.9171 137.0082 0001986  80.7552 279.3805 13.18685020114600
ONEWEB-0450             
1 50504U 21132AM  24087.61305104  .00000010  00000+0 -83362-5 0  9992
2 50504  87.9173 137.0226 0001669  98.3951 261.7370 13.18686158114648
